{"type":"FeatureCollection","features":[{"type":"Feature","id":1,"geometry":{"type":"LineString","coordinates":[[7.5861548000000312,45.084698500000059],[7.5863428000000681,45.084409100000073],[7.5865908000000672,45.084011300000043],[7.5867341000000579,45.083783200000028],[7.5868425000000457,45.083611500000075],[7.5868652000000338,45.083567400000049],[7.586881700000049,45.083525700000052],[7.586893400000065,45.083481800000072],[7.5869096000000695,45.08332560000008],[7.5869123000000513,45.083287300000052],[7.5869113000000539,45.083254400000044],[7.5868707000000768,45.082627000000059]]},"properties":{"OBJECTID":1,"F_id":"way/134416507","electrified":"rail","gauge":"1620","operator":"Gruppo Torinese Trasporti","operator_short":"GTT","operator_wikidata":"Q3756307","railway":"subway","service":"yard","tracks":"1","tunnel":null,"frequency":null,"layer":null,"maxspeed":null,"oneway":null,"voltage":null,"Shape_Length":0.0022832482870811621}},{"type":"Feature","id":2,"geometry":{"type":"LineString","coordinates":[[7.5863428000000681,45.084409100000073],[7.5863037000000304,45.084458600000062],[7.586280600000066,45.084477900000081],[7.5862439000000563,45.084504200000026],[7.586216600000057,45.084530100000052],[7.5861942000000226,45.084557600000039],[7.5861114000000498,45.084685100000058]]},"properties":{"OBJECTID":2,"F_id":"way/134416510","electrified":"rail","gauge":"1620","operator":"Gruppo Torinese Trasporti","operator_short":"GTT","operator_wikidata":"Q3756307","railway":"subway","service":"yard","tracks":"1","tunnel":null,"frequency":null,"layer":null,"maxspeed":null,"oneway":null,"voltage":null,"Shape_Length":0.00036345807283027262}},{"type":"Feature","id":3,"geometry":{"type":"LineString","coordinates":[[7.5849461000000247,45.084444800000028],[7.5848926000000461,45.084490100000039],[7.5848605000000475,45.08452340000008],[7.5848387000000344,45.084554100000048],[7.5847445000000562,45.084709300000043],[7.5846003000000337,45.084936500000026],[7.5843640000000505,45.085314800000049]]},"properties":{"OBJECTID":3,"F_id":"way/134416513","electrified":"rail","gauge":"1620","operator":"Gruppo Torinese Trasporti","operator_short":"GTT","operator_wikidata":"Q3756307","railway":"subway","service":"yard","tracks":"1","tunnel":null,"frequency":null,"layer":null,"maxspeed":null,"oneway":null,"voltage":null,"Shape_Length":0.0010506924929806335}},{"type":"Feature","id":4,"geometry":{"type":"LineString","coordinates":[[7.5865908000000672,45.084011300000043],[7.5865451000000235,45.084066200000052],[7.5865133000000355,45.084096600000066],[7.5863977000000204,45.08419420000007],[7.5863721000000623,45.084221300000081],[7.5863458000000605,45.08425630000005],[7.5862625000000321,45.084390800000051],[7.586081800000045,45.084674500000062]]},"properties":{"OBJECTID":4,"F_id":"way/134416514","electrified":"rail","gauge":"1620","operator":"Gruppo Torinese Trasporti","operator_short":"GTT","operator_wikidata":"Q3756307","railway":"subway","service":"yard","tracks":"1","tunnel":null,"frequency":null,"layer":null,"maxspeed":null,"oneway":null,"voltage":null,"Shape_Length":0.00084234230981018385}},{"type":"Feature","id":5,"geometry":{"type":"LineString","coordinates":[[7.5863711000000649,45.084418400000061],[7.5863566000000446,45.084458100000063],[7.5863511000000585,45.084488700000065],[7.5863419000000363,45.084536400000047],[7.586329600000056,45.084567400000026],[7.5863106000000471,45.084599500000081],[7.5862302000000454,45.084723600000075]]},"properties":{"OBJECTID":5,"F_id":"way/134416515","electrified":"rail","gauge":"1620","operator":"Gruppo Torinese Trasporti","operator_short":"GTT","operator_wikidata":"Q3756307","railway":"subway","service":"yard","tracks":"1","tunnel":null,"frequency":null,"layer":null,"maxspeed":null,"oneway":null,"voltage":null,"Shape_Length":0.00034045528221745582}},{"type":"Feature","id":6,"geometry":{"type":"LineString","coordinates":[[7.5870808000000238,45.081013800000051],[7.5872182000000521,45.083134800000039],[7.587327000000073,45.084606200000053],[7.5873305000000641,45.084720800000071],[7.5873221000000513,45.084826900000053],[7.5873070000000666,45.084953800000051],[7.5872812000000636,45.08506680000005],[7.5872453000000633,45.085187700000063],[7.5872113000000354,45.085284200000046],[7.5871590000000424,45.08539710000008],[7.5871068000000719,45.085496100000057],[7.5870384000000399,45.085613700000067],[7.5869741000000204,45.085710300000073],[7.5868727000000717,45.085838700000068],[7.5867769000000749,45.085947000000033],[7.5866718000000333,45.086048800000071],[7.5865593000000331,45.086146100000065],[7.5864478000000304,45.086233900000025],[7.5856244000000288,45.086842700000034],[7.5855616000000623,45.086879600000032],[7.5854716000000622,45.086923700000057],[7.5853774000000271,45.086962000000028],[7.5852882000000363,45.086990600000036],[7.5851886000000377,45.087017800000069],[7.5850944000000595,45.087036700000056],[7.5849928000000659,45.087050700000077],[7.5849072000000319,45.087060800000074],[7.5848047000000633,45.087064600000076],[7.5846836000000621,45.087063200000046],[7.5845884000000297,45.087057200000061],[7.584507100000053,45.08704350000005],[7.5844364000000724,45.087022800000057],[7.5843696000000591,45.086994700000048],[7.5843159000000355,45.086963200000071],[7.5842580000000339,45.086915800000043],[7.5842219000000455,45.086877900000047],[7.5841896000000588,45.086828300000036],[7.5841712000000712,45.086784900000055],[7.5841598000000658,45.086736200000075],[7.5841574000000378,45.086691400000063],[7.5841661000000613,45.08663880000006],[7.5841824000000315,45.086587100000031],[7.5842115000000376,45.086532000000034],[7.5843979000000559,45.086245900000051],[7.584929700000032,45.08539890000003],[7.5849792000000207,45.085313800000051],[7.585010000000068,45.085246400000074],[7.5850375000000554,45.085174600000073],[7.5850578000000723,45.085110800000052],[7.5852143000000751,45.084450400000037],[7.5852453000000537,45.084361500000057],[7.5852948000000424,45.084277500000042],[7.5854205000000547,45.084142600000064],[7.5855342000000405,45.084052300000053],[7.5858129000000645,45.083847500000047],[7.586568600000021,45.083294600000045]]},"properties":{"OBJECTID":6,"F_id":"way/134416516","electrified":"rail","gauge":"1620","operator":"Gruppo Torinese Trasporti","operator_short":"GTT","operator_wikidata":"Q3756307","railway":"subway","service":"yard","tracks":"1","tunnel":null,"frequency":null,"layer":null,"maxspeed":null,"oneway":null,"voltage":null,"Shape_Length":0.012556456050888136}},{"type":"Feature","id":7,"geometry":{"type":"LineString","coordinates":[[7.5847445000000562,45.084709300000043],[7.5847148000000288,45.084767800000066],[7.5847048000000541,45.084802700000068],[7.5847004000000311,45.084833500000059],[7.5846836000000621,45.085033000000067],[7.5846767000000455,45.085063400000081],[7.584665100000052,45.08509470000007],[7.5846471000000406,45.085128000000054],[7.5845014000000219,45.085357300000055]]},"properties":{"OBJECTID":7,"F_id":"way/134416520","electrified":"rail","gauge":"1620","operator":"Gruppo Torinese Trasporti","operator_short":"GTT","operator_wikidata":"Q3756307","railway":"subway","service":"yard","tracks":"1","tunnel":null,"frequency":null,"layer":null,"maxspeed":null,"oneway":null,"voltage":null,"Shape_Length":0.00070731223710845947}},{"type":"Feature","id":8,"geometry":{"type":"LineString","coordinates":[[7.5846003000000337,45.084936500000026],[7.5845703000000526,45.084996700000033],[7.5845611000000304,45.085032000000069],[7.5845582000000604,45.085067700000081],[7.5845525000000293,45.085115500000029],[7.5845453000000589,45.08514480000008],[7.5845337000000654,45.085175400000026],[7.5844298000000663,45.085338100000058]]},"properties":{"OBJECTID":8,"F_id":"way/134416521","electrified":"rail","gauge":"1620","operator":"Gruppo Torinese Trasporti","operator_short":"GTT","operator_wikidata":"Q3756307","railway":"subway","service":"yard","tracks":"1","tunnel":null,"frequency":null,"layer":null,"maxspeed":null,"oneway":null,"voltage":null,"Shape_Length":0.00044363832471752847}},{"type":"Feature","id":9,"geometry":{"type":"LineString","coordinates":[[7.5862625000000321,45.084390800000051],[7.5862262000000555,45.084438100000057],[7.5862035000000674,45.084458700000027],[7.5861594000000423,45.084492900000043],[7.5861304000000587,45.084524900000076],[7.5861110000000735,45.084551600000054],[7.5860373000000436,45.084661800000049]]},"properties":{"OBJECTID":9,"F_id":"way/134416522","electrified":"rail","gauge":"1620","operator":"Gruppo Torinese Trasporti","operator_short":"GTT","operator_wikidata":"Q3756307","railway":"subway","service":"yard","tracks":"1","tunnel":null,"frequency":null,"layer":null,"maxspeed":null,"oneway":null,"voltage":null,"Shape_Length":0.00035484754411802173}},{"type":"Feature","id":10,"geometry":{"type":"LineString","coordinates":[[7.5842929000000368,45.085292300000049],[7.5843859000000293,45.085145900000043],[7.5844020000000683,45.085113300000046],[7.5844097000000374,45.085083200000042],[7.5844183000000385,45.085024200000078],[7.5844227000000615,45.084987800000079],[7.5844334000000231,45.084954000000039],[7.5844631000000504,45.084894600000041]]},"properties":{"OBJECTID":10,"F_id":"way/134416524","electrified":"rail","gauge":"1620","operator":"Gruppo Torinese Trasporti","operator_short":"GTT","operator_wikidata":"Q3756307","railway":"subway","service":"yard","tracks":"1","tunnel":null,"frequency":null,"layer":null,"maxspeed":null,"oneway":null,"voltage":null,"Shape_Length":0.00043902258283433913}},{"type":"Feature","id":11,"geometry":{"type":"LineString","coordinates":[[7.5853460000000723,45.085627900000077],[7.5854427000000442,45.085463100000027],[7.5854641000000242,45.085413900000049],[7.5854762000000733,45.085366500000077],[7.5854948000000491,45.085316300000045]]},"properties":{"OBJECTID":11,"F_id":"way/134416616","electrified":"rail","gauge":"1620","operator":"Gruppo Torinese Trasporti","operator_short":"GTT","operator_wikidata":"Q3756307","railway":"subway","service":"yard","tracks":null,"tunnel":"no","frequency":null,"layer":null,"maxspeed":null,"oneway":null,"voltage":null,"Shape_Length":0.00034718337617966482}},{"type":"Feature","id":12,"geometry":{"type":"LineString","coordinates":[[7.5867341000000579,45.083783200000028],[7.5866896000000565,45.083838100000037],[7.5866565000000605,45.083866300000068],[7.5862684000000513,45.084148300000038],[7.5862324000000285,45.084184300000061],[7.586204700000053,45.08422180000008],[7.5861743000000388,45.084271200000046],[7.585775500000068,45.084875600000032],[7.5855486000000383,45.085231100000044],[7.5854948000000491,45.085316300000045],[7.5853059000000371,45.085615400000052]]},"properties":{"OBJECTID":12,"F_id":"way/134416619","electrified":"rail","gauge":"1620","operator":"Gruppo Torinese Trasporti","operator_short":"GTT","operator_wikidata":"Q3756307","railway":"subway","service":"yard","tracks":"1","tunnel":null,"frequency":null,"layer":null,"maxspeed":null,"oneway":null,"voltage":null,"Shape_Length":0.0023498007095267776}},{"type":"Feature","id":13,"geometry":{"type":"LineString","coordinates":[[7.5868525000000204,45.082418400000051],[7.5868623000000639,45.082344000000035],[7.5868741000000455,45.082273300000054]]},"properties":{"OBJECTID":13,"F_id":"way/134416761","electrified":"rail","gauge":"1620","operator":"Gruppo Torinese Trasporti","operator_short":"GTT","operator_wikidata":"Q3756307","railway":"subway","service":"yard","tracks":"1","tunnel":null,"frequency":null,"layer":null,"maxspeed":null,"oneway":null,"voltage":null,"Shape_Length":0.00014672061488793433}},{"type":"Feature","id":14,"geometry":{"type":"LineString","coordinates":[[7.5868785000000685,45.08242000000007],[7.5868623000000639,45.082344000000035],[7.5868430000000444,45.08227160000007],[7.5867908000000739,45.081725300000073],[7.5867656000000352,45.081350100000066],[7.5867393000000334,45.081014900000071]]},"properties":{"OBJECTID":14,"F_id":"way/134416762","electrified":"rail","gauge":"1620","operator":"Gruppo Torinese Trasporti","operator_short":"GTT","operator_wikidata":"Q3756307","railway":"subway","service":"yard","tracks":"1","tunnel":null,"frequency":null,"layer":null,"maxspeed":null,"oneway":null,"voltage":null,"Shape_Length":0.0014136994273732109}},{"type":"Feature","id":15,"geometry":{"type":"LineString","coordinates":[[7.5867757000000324,45.081011700000033],[7.5868481000000543,45.081996500000059],[7.5868741000000455,45.082273300000054],[7.5868785000000685,45.08242000000007],[7.5869006000000354,45.082626100000027],[7.5869371000000569,45.083215700000039],[7.5869389000000638,45.083259700000042],[7.5869375000000332,45.083301200000051],[7.5869352000000276,45.083335600000055],[7.5869264000000385,45.083451800000034],[7.5869155000000319,45.083517500000028],[7.5868980000000761,45.083573500000057],[7.5868759000000523,45.083619900000031],[7.5868178000000626,45.083710400000029],[7.5866744000000494,45.083933900000034],[7.5863711000000649,45.084418400000061],[7.5861883000000603,45.084710200000075]]},"properties":{"OBJECTID":15,"F_id":"way/154979893","electrified":"rail","gauge":"1620","operator":"Gruppo Torinese Trasporti","operator_short":"GTT","operator_wikidata":"Q3756307","railway":"subway","service":"yard","tracks":"1","tunnel":null,"frequency":null,"layer":null,"maxspeed":null,"oneway":null,"voltage":null,"Shape_Length":0.0039125120251137487}},{"type":"Feature","id":16,"geometry":{"type":"LineString","coordinates":[[7.5842216000000349,45.085270100000059],[7.5844631000000504,45.084894600000041],[7.5845442000000389,45.084765300000072],[7.5845742000000769,45.084724700000038],[7.5846056000000317,45.084694300000081],[7.5846375000000421,45.084669200000064],[7.5849461000000247,45.084444800000028],[7.5851800000000367,45.08427110000008],[7.5856059000000755,45.083966000000032],[7.5858424000000468,45.083796500000062],[7.586361600000032,45.083403200000078],[7.5864048000000253,45.083377100000064],[7.5864482000000635,45.083354400000076],[7.5864866000000575,45.083340400000054],[7.5865180000000692,45.083325100000081],[7.586568600000021,45.083294600000045],[7.586700300000075,45.08319750000004],[7.5867469000000369,45.083159200000068],[7.5867810000000304,45.083127200000035],[7.5868081000000416,45.083094200000062],[7.5868267000000742,45.083058600000072],[7.5868416000000707,45.083022400000061],[7.586851500000023,45.082982800000025],[7.5868520000000217,45.082937100000038],[7.5868428000000563,45.082797800000037],[7.5868458000000487,45.082763000000057],[7.5868527000000654,45.082733100000041],[7.5868617000000427,45.082703300000048],[7.5868662000000313,45.082674500000053],[7.5868707000000768,45.082627000000059],[7.5868525000000204,45.082418400000051],[7.5868430000000444,45.08227160000007]]},"properties":{"OBJECTID":16,"F_id":"way/154979895","electrified":"rail","gauge":"1620","operator":"Gruppo Torinese Trasporti","operator_short":"GTT","operator_wikidata":"Q3756307","railway":"subway","service":"yard","tracks":"1","tunnel":null,"frequency":null,"layer":null,"maxspeed":null,"oneway":null,"voltage":null,"Shape_Length":0.0042562746464848786}},{"type":"Feature","id":17,"geometry":{"type":"LineString","coordinates":[[7.5851800000000367,45.08427110000008],[7.5851240000000644,45.08432410000006],[7.5850897000000259,45.084367000000043],[7.5850696000000539,45.084407000000056],[7.5850523000000294,45.084443400000055],[7.5850425000000428,45.084476500000051],[7.5849680000000603,45.084802900000057],[7.5849418000000242,45.084872400000052],[7.5849242000000459,45.084905100000071],[7.5849063000000569,45.084934000000032],[7.5848442000000205,45.085024400000066],[7.584613700000034,45.085392200000058]]},"properties":{"OBJECTID":17,"F_id":"way/301173249","electrified":"rail","gauge":"1620","operator":"Gruppo Torinese Trasporti","operator_short":"GTT","operator_wikidata":"Q3756307","railway":"subway","service":"yard","tracks":"1","tunnel":null,"frequency":null,"layer":null,"maxspeed":null,"oneway":null,"voltage":null,"Shape_Length":0.0012755509501201816}},{"type":"Feature","id":18,"geometry":{"type":"LineString","coordinates":[[7.5846883000000389,45.085412700000063],[7.5847727000000305,45.085268000000042],[7.5847885000000588,45.085235300000079],[7.5847987000000217,45.085194600000079],[7.584805900000049,45.085138900000061],[7.5848094000000401,45.08511210000006],[7.5848172000000318,45.085080000000062],[7.5848442000000205,45.085024400000066]]},"properties":{"OBJECTID":18,"F_id":"way/301173250","electrified":"rail","gauge":"1620","operator":"Gruppo Torinese Trasporti","operator_short":"GTT","operator_wikidata":"Q3756307","railway":"subway","service":"yard","tracks":"1","tunnel":null,"frequency":null,"layer":null,"maxspeed":null,"oneway":null,"voltage":null,"Shape_Length":0.00042382540258732704}},{"type":"Feature","id":19,"geometry":{"type":"LineString","coordinates":[[7.5847545000000309,45.085432100000048],[7.5848364000000288,45.085305700000049],[7.5848538000000758,45.085273700000073],[7.5848673000000417,45.085244100000068],[7.5849680000000603,45.084802900000057]]},"properties":{"OBJECTID":19,"F_id":"way/301173251","electrified":"rail","gauge":"1620","operator":"Gruppo Torinese Trasporti","operator_short":"GTT","operator_wikidata":"Q3756307","railway":"subway","service":"yard","tracks":"1","tunnel":null,"frequency":null,"layer":null,"maxspeed":null,"oneway":null,"voltage":null,"Shape_Length":0.00067211796036595805}},{"type":"Feature","id":20,"geometry":{"type":"LineString","coordinates":[[7.5856059000000755,45.083966000000032],[7.585650600000065,45.083938400000079],[7.5857718000000318,45.083872700000029],[7.5858129000000645,45.083847500000047]]},"properties":{"OBJECTID":20,"F_id":"way/1219462938","electrified":"rail","gauge":"1620","operator":"Gruppo Torinese Trasporti","operator_short":"GTT","operator_wikidata":"Q3756307","railway":"subway","service":"yard","tracks":null,"tunnel":"no","frequency":null,"layer":null,"maxspeed":null,"oneway":null,"voltage":null,"Shape_Length":0.00023860674675929168}},{"type":"Feature","id":21,"geometry":{"type":"LineString","coordinates":[[7.5866744000000494,45.083933900000034],[7.5866400000000453,45.084005500000046],[7.5866252000000713,45.084042800000077],[7.586616700000036,45.084085000000073]]},"properties":{"OBJECTID":21,"F_id":"way/1219463743","electrified":"rail","gauge":"1620","operator":"Gruppo Torinese Trasporti","operator_short":"GTT","operator_wikidata":"Q3756307","railway":"subway","service":"yard","tracks":null,"tunnel":"no","frequency":null,"layer":null,"maxspeed":null,"oneway":null,"voltage":null,"Shape_Length":0.00016261145403632265}},{"type":"Feature","id":22,"geometry":{"type":"LineString","coordinates":[[7.5868178000000626,45.083710400000029],[7.5867867000000615,45.083769300000029],[7.5867750000000456,45.083799500000055],[7.5867618000000334,45.083843300000069]]},"properties":{"OBJECTID":22,"F_id":"way/1219463744","electrified":"rail","gauge":"1620","operator":"Gruppo Torinese Trasporti","operator_short":"GTT","operator_wikidata":"Q3756307","railway":"subway","service":"yard","tracks":null,"tunnel":"no","frequency":null,"layer":null,"maxspeed":null,"oneway":null,"voltage":null,"Shape_Length":0.00014473946449698494}},{"type":"Feature","id":23,"geometry":{"type":"LineString","coordinates":[[7.5869264000000385,45.083451800000034],[7.5869107000000326,45.083609300000035]]},"properties":{"OBJECTID":23,"F_id":"way/1219463745","electrified":"rail","gauge":"1620","operator":"Gruppo Torinese Trasporti","operator_short":"GTT","operator_wikidata":"Q3756307","railway":"subway","service":"yard","tracks":null,"tunnel":"no","frequency":null,"layer":null,"maxspeed":null,"oneway":null,"voltage":null,"Shape_Length":0.00015828057366671207}},{"type":"Feature","id":24,"geometry":{"type":"LineString","coordinates":[[7.6548685000000205,45.076001900000051],[7.6023966000000769,45.073861800000032],[7.5968845000000442,45.074953900000025],[7.5911813000000734,45.076011100000073]]},"properties":{"OBJECTID":24,"F_id":"way/1479425416","electrified":"rail","gauge":"1620","operator":"Gruppo Torinese Trasporti","operator_short":"GTT","operator_wikidata":"Q3756307","railway":"subway","service":null,"tracks":"1","tunnel":"yes","frequency":"0","layer":"-2","maxspeed":"80","oneway":"yes","voltage":"750","Shape_Length":0.063935129613745881}},{"type":"Feature","id":25,"geometry":{"type":"LineString","coordinates":[[7.5899232000000438,45.076313200000072],[7.5895221000000674,45.076409500000068],[7.5884696000000531,45.076630300000033],[7.5883135000000266,45.076684800000066],[7.5881831000000375,45.076736400000073],[7.5880544000000327,45.076804200000026],[7.5879691000000662,45.076864400000034],[7.5878634000000602,45.07695300000006],[7.587790400000074,45.077034500000025],[7.5877111000000355,45.077150800000027],[7.5876059000000282,45.077379200000053],[7.5875099000000432,45.077769800000056],[7.587528700000064,45.078369800000075],[7.5875202000000286,45.078544800000032],[7.5874803000000384,45.078798000000063],[7.5874161000000413,45.079005900000027],[7.5869217000000617,45.080083000000059],[7.5867714000000319,45.080805500000054],[7.5867757000000324,45.081011700000033]]},"properties":{"OBJECTID":25,"F_id":"way/1479425417","electrified":"rail","gauge":"1620","operator":"Gruppo Torinese Trasporti","operator_short":"GTT","operator_wikidata":"Q3756307","railway":"subway","service":"siding","tracks":"1","tunnel":"yes","frequency":"0","layer":"-1","maxspeed":"80","oneway":"yes","voltage":"750","Shape_Length":0.0064639160230761227}},{"type":"Feature","id":26,"geometry":{"type":"LineString","coordinates":[[7.5867393000000334,45.081014900000071],[7.5867306000000667,45.080805100000077],[7.5868792000000553,45.080077600000038],[7.5873764000000392,45.078999700000054],[7.5874510000000441,45.078793500000074],[7.5874895000000606,45.078545000000076],[7.5874992000000248,45.078369800000075],[7.5874777000000222,45.07776860000007],[7.5875705000000266,45.077377900000045],[7.5876193000000285,45.077266900000041],[7.5876802000000225,45.077145900000062],[7.5877595000000611,45.077026500000045],[7.5878331000000685,45.076942000000031],[7.5879386000000295,45.076853000000028],[7.5880292000000509,45.076790500000072],[7.5881559000000607,45.076725100000033],[7.5882996000000276,45.076669600000059],[7.5884624000000258,45.07661360000003],[7.5895135000000664,45.076391200000046],[7.5899118000000385,45.07629380000003]]},"properties":{"OBJECTID":26,"F_id":"way/1479425418","electrified":"rail","gauge":"1620","operator":"Gruppo Torinese Trasporti","operator_short":"GTT","operator_wikidata":"Q3756307","railway":"subway","service":"siding","tracks":"1","tunnel":"yes","frequency":"0","layer":"-1","maxspeed":"80","oneway":"yes","voltage":"750","Shape_Length":0.0065023134680839067}},{"type":"Feature","id":27,"geometry":{"type":"LineString","coordinates":[[7.5911713000000418,45.075985800000069],[7.5968676000000528,45.074919400000056],[7.6023934000000395,45.073838900000055],[7.6552386000000752,45.075990300000058]]},"properties":{"OBJECTID":27,"F_id":"way/1479425419","electrified":"rail","gauge":"1620","operator":"Gruppo Torinese Trasporti","operator_short":"GTT","operator_wikidata":"Q3756307","railway":"subway","service":null,"tracks":"1","tunnel":"yes","frequency":"0","layer":"-2","maxspeed":"80","oneway":"yes","voltage":"750","Shape_Length":0.064314683548150037}},{"type":"Feature","id":28,"geometry":{"type":"LineString","coordinates":[[7.6609954000000471,45.016276000000062],[7.6604338000000212,45.014816600000074]]},"properties":{"OBJECTID":28,"F_id":"way/1479425420","electrified":"rail","gauge":"1620","operator":"Gruppo Torinese Trasporti","operator_short":"GTT","operator_wikidata":"Q3756307","railway":"subway","service":"siding","tracks":"1","tunnel":"yes","frequency":"0","layer":"-1","maxspeed":"80","oneway":null,"voltage":"750","Shape_Length":0.0015637272524300693}},{"type":"Feature","id":29,"geometry":{"type":"LineString","coordinates":[[7.6604984000000513,45.01480250000003],[7.6611558000000741,45.016484600000069],[7.6612621000000445,45.016756500000042]]},"properties":{"OBJECTID":29,"F_id":"way/1479425421","electrified":"rail","gauge":"1620","operator":"Gruppo Torinese Trasporti","operator_short":"GTT","operator_wikidata":"Q3756307","railway":"subway","service":"siding","tracks":"1","tunnel":"yes","frequency":"0","layer":"-1","maxspeed":"80","oneway":null,"voltage":"750","Shape_Length":0.0020979403463642931}},{"type":"Feature","id":30,"geometry":{"type":"LineString","coordinates":[[7.6670601000000715,45.031775800000048],[7.6670628000000534,45.031802700000071],[7.667057600000021,45.031840400000078],[7.6670521000000349,45.031879600000025],[7.6670539000000417,45.031904700000041]]},"properties":{"OBJECTID":30,"F_id":"way/1479425424","electrified":"rail","gauge":"1620","operator":"Gruppo Torinese Trasporti","operator_short":"GTT","operator_wikidata":"Q3756307","railway":"subway","service":"crossover","tracks":"1","tunnel":"yes","frequency":"0","layer":"-2","maxspeed":"80","oneway":null,"voltage":"750","Shape_Length":0.00012984051378391774}},{"type":"Feature","id":31,"geometry":{"type":"LineString","coordinates":[[7.6671053000000597,45.031892900000059],[7.667090900000062,45.031871700000067],[7.667057600000021,45.031840400000078],[7.6670255000000225,45.031810300000075],[7.667008600000031,45.03178790000004]]},"properties":{"OBJECTID":31,"F_id":"way/1479425425","electrified":"rail","gauge":"1620","operator":"Gruppo Torinese Trasporti","operator_short":"GTT","operator_wikidata":"Q3756307","railway":"subway","service":"crossover","tracks":"1","tunnel":"yes","frequency":"0","layer":"-2","maxspeed":"80","oneway":null,"voltage":"750","Shape_Length":0.00014339398078730544}},{"type":"Feature","id":32,"geometry":{"type":"LineString","coordinates":[[7.6613416000000711,45.016959900000074],[7.6669853000000217,45.031582100000037]]},"properties":{"OBJECTID":32,"F_id":"way/1479425426","electrified":"rail","gauge":"1620","operator":"Gruppo Torinese Trasporti","operator_short":"GTT","operator_wikidata":"Q3756307","railway":"subway","service":null,"tracks":"1","tunnel":"yes","frequency":"0","layer":"-2","maxspeed":"80","oneway":"yes","voltage":"750","Shape_Length":0.015673547222257788}},{"type":"Feature","id":33,"geometry":{"type":"LineString","coordinates":[[7.6669324000000643,45.031591200000037],[7.6612641000000394,45.016974300000072]]},"properties":{"OBJECTID":33,"F_id":"way/1479425427","electrified":"rail","gauge":"1620","operator":"Gruppo Torinese Trasporti","operator_short":"GTT","operator_wikidata":"Q3756307","railway":"subway","service":null,"tracks":"1","tunnel":"yes","frequency":"0","layer":"-2","maxspeed":"80","oneway":"yes","voltage":"750","Shape_Length":0.01567748036194733}},{"type":"Feature","id":34,"geometry":{"type":"LineString","coordinates":[[7.6671243000000686,45.032086100000072],[7.6670539000000417,45.031904700000041]]},"properties":{"OBJECTID":34,"F_id":"way/1479425428","electrified":"rail","gauge":"1620","operator":"Gruppo Torinese Trasporti","operator_short":"GTT","operator_wikidata":"Q3756307","railway":"subway","service":null,"tracks":"1","tunnel":"yes","frequency":"0","layer":"-2","maxspeed":"80","oneway":null,"voltage":"750","Shape_Length":0.00019458191081131738}},{"type":"Feature","id":35,"geometry":{"type":"LineString","coordinates":[[7.6671053000000597,45.031892900000059],[7.6671758000000523,45.032075400000053]]},"properties":{"OBJECTID":35,"F_id":"way/1479425429","electrified":"rail","gauge":"1620","operator":"Gruppo Torinese Trasporti","operator_short":"GTT","operator_wikidata":"Q3756307","railway":"subway","service":null,"tracks":"1","tunnel":"yes","frequency":"0","layer":"-2","maxspeed":"80","oneway":null,"voltage":"750","Shape_Length":0.0001956438089916208}},{"type":"Feature","id":36,"geometry":{"type":"LineString","coordinates":[[7.6670601000000715,45.031775800000048],[7.6671053000000597,45.031892900000059]]},"properties":{"OBJECTID":36,"F_id":"way/1479425430","electrified":"rail","gauge":"1620","operator":"Gruppo Torinese Trasporti","operator_short":"GTT","operator_wikidata":"Q3756307","railway":"subway","service":null,"tracks":"1","tunnel":"yes","frequency":"0","layer":"-2","maxspeed":"80","oneway":"yes","voltage":"750","Shape_Length":0.00012552071542809546}},{"type":"Feature","id":37,"geometry":{"type":"LineString","coordinates":[[7.6670539000000417,45.031904700000041],[7.667008600000031,45.03178790000004]]},"properties":{"OBJECTID":37,"F_id":"way/1479425431","electrified":"rail","gauge":"1620","operator":"Gruppo Torinese Trasporti","operator_short":"GTT","operator_wikidata":"Q3756307","railway":"subway","service":null,"tracks":"1","tunnel":"yes","frequency":"0","layer":"-2","maxspeed":"80","oneway":"yes","voltage":"750","Shape_Length":0.00012527701305957978}},{"type":"Feature","id":38,"geometry":{"type":"LineString","coordinates":[[7.6669853000000217,45.031582100000037],[7.6670601000000715,45.031775800000048]]},"properties":{"OBJECTID":38,"F_id":"way/1479425432","electrified":"rail","gauge":"1620","operator":"Gruppo Torinese Trasporti","operator_short":"GTT","operator_wikidata":"Q3756307","railway":"subway","service":null,"tracks":"1","tunnel":"yes","frequency":"0","layer":"-2","maxspeed":"80","oneway":null,"voltage":"750","Shape_Length":0.00020764086787478382}},{"type":"Feature","id":39,"geometry":{"type":"LineString","coordinates":[[7.667008600000031,45.03178790000004],[7.6669324000000643,45.031591200000037]]},"properties":{"OBJECTID":39,"F_id":"way/1479425433","electrified":"rail","gauge":"1620","operator":"Gruppo Torinese Trasporti","operator_short":"GTT","operator_wikidata":"Q3756307","railway":"subway","service":null,"tracks":"1","tunnel":"yes","frequency":"0","layer":"-2","maxspeed":"80","oneway":null,"voltage":"750","Shape_Length":0.00021094390248678363}},{"type":"Feature","id":40,"geometry":{"type":"LineString","coordinates":[[7.6796419000000355,45.061684100000036],[7.6796300000000315,45.061674400000072],[7.6796116000000438,45.06166520000005],[7.6795920000000706,45.061653300000046],[7.6792314000000488,45.061157600000058],[7.6792198000000553,45.061130100000071],[7.679209300000025,45.061099800000079],[7.6791992000000278,45.061078100000032]]},"properties":{"OBJECTID":40,"F_id":"way/1479425434","electrified":"rail","gauge":"1620","operator":"Gruppo Torinese Trasporti","operator_short":"GTT","operator_wikidata":"Q3756307","railway":"subway","service":"siding","tracks":"1","tunnel":"yes","frequency":"0","layer":"-2","maxspeed":"80","oneway":"yes","voltage":"750","Shape_Length":0.00075768873094199016}},{"type":"Feature","id":41,"geometry":{"type":"LineString","coordinates":[[7.6786931000000322,45.062861800000064],[7.6786739000000352,45.062866100000065],[7.6786379000000693,45.062867100000062],[7.6786097000000382,45.062867900000072],[7.6785863000000631,45.062871200000075]]},"properties":{"OBJECTID":41,"F_id":"way/1479425435","electrified":"rail","gauge":"1620","operator":"Gruppo Torinese Trasporti","operator_short":"GTT","operator_wikidata":"Q3756307","railway":"subway","service":"crossover","tracks":"1","tunnel":"yes","frequency":"0","layer":"-2","maxspeed":"80","oneway":null,"voltage":"750","Shape_Length":0.00010753239755957981}},{"type":"Feature","id":42,"geometry":{"type":"LineString","coordinates":[[7.6786784000000239,45.062838000000056],[7.6786611000000562,45.06284670000008],[7.6786379000000693,45.062867100000062],[7.6786200000000235,45.062883000000056],[7.6786012000000596,45.06289490000006]]},"properties":{"OBJECTID":42,"F_id":"way/1479425436","electrified":"rail","gauge":"1620","operator":"Gruppo Torinese Trasporti","operator_short":"GTT","operator_wikidata":"Q3756307","railway":"subway","service":"crossover","tracks":"1","tunnel":"yes","frequency":"0","layer":"-2","maxspeed":"80","oneway":null,"voltage":"750","Shape_Length":9.6449497653498879e-05}},{"type":"Feature","id":43,"geometry":{"type":"LineString","coordinates":[[7.6788624000000709,45.062771600000076],[7.6792689000000678,45.06262490000006],[7.6794291000000499,45.062554000000034],[7.6795797000000334,45.062471500000072],[7.6796549000000596,45.062396300000046],[7.67970930000007,45.062314700000059],[7.6797618000000512,45.062104200000078],[7.6797659000000635,45.061947700000076],[7.6796969000000672,45.061759400000028],[7.6796419000000355,45.061684100000036],[7.6791992000000278,45.061078100000032],[7.6777046000000269,45.059032000000059],[7.6774559000000409,45.058547300000043],[7.6764764000000696,45.056331100000079],[7.6761269000000425,45.055401800000027],[7.6755314000000681,45.053801800000031],[7.6750592000000211,45.05262330000005],[7.673835800000063,45.049433000000079],[7.6723684000000389,45.045605800000033],[7.6671243000000686,45.032086100000072]]},"properties":{"OBJECTID":43,"F_id":"way/1479425437","electrified":"rail","gauge":"1620","operator":"Gruppo Torinese Trasporti","operator_short":"GTT","operator_wikidata":"Q3756307","railway":"subway","service":null,"tracks":"1","tunnel":"yes","frequency":"0","layer":"-2","maxspeed":"80","oneway":"yes","voltage":"750","Shape_Length":0.033889374003328275}},{"type":"Feature","id":44,"geometry":{"type":"LineString","coordinates":[[7.6785863000000631,45.062871200000075],[7.6786784000000239,45.062838000000056]]},"properties":{"OBJECTID":44,"F_id":"way/1479425438","electrified":"rail","gauge":"1620","operator":"Gruppo Torinese Trasporti","operator_short":"GTT","operator_wikidata":"Q3756307","railway":"subway","service":null,"tracks":"1","tunnel":"yes","frequency":"0","layer":"-2","maxspeed":"80","oneway":"yes","voltage":"750","Shape_Length":9.790122570221474e-05}},{"type":"Feature","id":45,"geometry":{"type":"LineString","coordinates":[[7.6671758000000523,45.032075400000053],[7.6723973000000569,45.045600300000046],[7.6738772000000495,45.049425700000029],[7.675094500000057,45.052617200000043],[7.6755500000000438,45.053798400000062],[7.6761640000000284,45.055395600000054],[7.6765215000000353,45.056323000000077],[7.677471100000048,45.058544700000027],[7.6777371000000585,45.059023800000034],[7.6797339000000306,45.061750200000063],[7.6797920000000204,45.061945200000025],[7.6797927000000641,45.062105700000075],[7.6797340000000531,45.062316900000042],[7.679681300000027,45.062402100000043],[7.6796030000000428,45.062486100000058],[7.6794491000000562,45.062574900000072],[7.6792870000000448,45.062647900000059],[7.678879400000028,45.06279470000004]]},"properties":{"OBJECTID":45,"F_id":"way/1479425439","electrified":"rail","gauge":"1620","operator":"Gruppo Torinese Trasporti","operator_short":"GTT","operator_wikidata":"Q3756307","railway":"subway","service":null,"tracks":"1","tunnel":"yes","frequency":"0","layer":"-2","maxspeed":"80","oneway":"yes","voltage":"750","Shape_Length":0.033916758981492684}},{"type":"Feature","id":46,"geometry":{"type":"LineString","coordinates":[[7.6786931000000322,45.062861800000064],[7.6786012000000596,45.06289490000006]]},"properties":{"OBJECTID":46,"F_id":"way/1479425440","electrified":"rail","gauge":"1620","operator":"Gruppo Torinese Trasporti","operator_short":"GTT","operator_wikidata":"Q3756307","railway":"subway","service":null,"tracks":"1","tunnel":"yes","frequency":"0","layer":"-2","maxspeed":"80","oneway":"yes","voltage":"750","Shape_Length":9.7679168683511384e-05}},{"type":"Feature","id":47,"geometry":{"type":"LineString","coordinates":[[7.6786012000000596,45.06289490000006],[7.6784236000000305,45.062958800000047]]},"properties":{"OBJECTID":47,"F_id":"way/1479425441","electrified":"rail","gauge":"1620","operator":"Gruppo Torinese Trasporti","operator_short":"GTT","operator_wikidata":"Q3756307","railway":"subway","service":null,"tracks":"1","tunnel":"yes","frequency":"0","layer":"-2","maxspeed":"80","oneway":null,"voltage":"750","Shape_Length":0.00018874578143259705}},{"type":"Feature","id":48,"geometry":{"type":"LineString","coordinates":[[7.6784063000000629,45.062936100000059],[7.6785863000000631,45.062871200000075]]},"properties":{"OBJECTID":48,"F_id":"way/1479425442","electrified":"rail","gauge":"1620","operator":"Gruppo Torinese Trasporti","operator_short":"GTT","operator_wikidata":"Q3756307","railway":"subway","service":null,"tracks":"1","tunnel":"yes","frequency":"0","layer":"-2","maxspeed":"80","oneway":null,"voltage":"750","Shape_Length":0.00019134265075518235}},{"type":"Feature","id":49,"geometry":{"type":"LineString","coordinates":[[7.6786784000000239,45.062838000000056],[7.6788624000000709,45.062771600000076]]},"properties":{"OBJECTID":49,"F_id":"way/1479425443","electrified":"rail","gauge":"1620","operator":"Gruppo Torinese Trasporti","operator_short":"GTT","operator_wikidata":"Q3756307","railway":"subway","service":null,"tracks":"1","tunnel":"yes","frequency":"0","layer":"-2","maxspeed":"80","oneway":null,"voltage":"750","Shape_Length":0.00019561431444215123}},{"type":"Feature","id":50,"geometry":{"type":"LineString","coordinates":[[7.678879400000028,45.06279470000004],[7.6786931000000322,45.062861800000064]]},"properties":{"OBJECTID":50,"F_id":"way/1479425444","electrified":"rail","gauge":"1620","operator":"Gruppo Torinese Trasporti","operator_short":"GTT","operator_wikidata":"Q3756307","railway":"subway","service":null,"tracks":"1","tunnel":"yes","frequency":"0","layer":"-2","maxspeed":"80","oneway":null,"voltage":"750","Shape_Length":0.0001980154034453365}},{"type":"Feature","id":51,"geometry":{"type":"LineString","coordinates":[[7.6677019000000541,45.073420700000042],[7.6677181000000587,45.073434900000052],[7.6677640000000338,45.073455600000045],[7.6677846000000613,45.073470800000052]]},"properties":{"OBJECTID":51,"F_id":"way/1479425445","electrified":"rail","gauge":"1620","operator":"Gruppo Torinese Trasporti","operator_short":"GTT","operator_wikidata":"Q3756307","railway":"subway","service":"crossover","tracks":"1","tunnel":"yes","frequency":"0","layer":"-2","maxspeed":"80","oneway":null,"voltage":"750","Shape_Length":9.749505998114249e-05}},{"type":"Feature","id":52,"geometry":{"type":"LineString","coordinates":[[7.6675831000000585,45.073259000000064],[7.6674328000000287,45.073054500000069],[7.6669900000000553,45.072692500000073],[7.6666400000000294,45.072405700000047],[7.666287000000068,45.072071000000051],[7.6659573000000591,45.071646200000032],[7.6648061000000212,45.069977600000072],[7.6646783000000482,45.069708800000058],[7.6645964000000504,45.069416000000047],[7.66458700000004,45.069220700000074],[7.6646067000000357,45.069022000000075],[7.6646398000000318,45.068803100000025],[7.6647028000000432,45.068618300000026],[7.6648208000000295,45.06834630000003],[7.6649002000000337,45.06817650000005],[7.6650686000000405,45.06795070000004],[7.6653004000000351,45.067738200000065],[7.6654693000000407,45.067628400000046],[7.665680400000042,45.067527000000041],[7.6784063000000629,45.062936100000059]]},"properties":{"OBJECTID":52,"F_id":"way/1479425446","electrified":"rail","gauge":"1620","operator":"Gruppo Torinese Trasporti","operator_short":"GTT","operator_wikidata":"Q3756307","railway":"subway","service":null,"tracks":"1","tunnel":"yes","frequency":"0","layer":"-2","maxspeed":"80","oneway":"yes","voltage":"750","Shape_Length":0.020787502583134443}},{"type":"Feature","id":53,"geometry":{"type":"LineString","coordinates":[[7.6784236000000305,45.062958800000047],[7.6656953000000385,45.06754090000004],[7.6654881000000614,45.067637400000081],[7.6653249000000301,45.067748800000061],[7.6651090000000295,45.067953400000079],[7.6649428000000626,45.068181800000048],[7.6648706000000288,45.068353000000059],[7.6647377000000461,45.068622000000062],[7.6646723000000634,45.06880840000008],[7.6646449000000416,45.069025500000066],[7.6646186000000398,45.069222900000057],[7.6646379000000593,45.069411200000047],[7.6647259000000645,45.069695700000068],[7.6648563000000536,45.06995900000004],[7.6659978000000706,45.071632400000055],[7.6663277000000676,45.072048400000028],[7.6666748000000666,45.072384800000066],[7.6670133000000646,45.07267580000007],[7.6674518000000376,45.073042200000032],[7.6677846000000613,45.073470800000052]]},"properties":{"OBJECTID":53,"F_id":"way/1479425447","electrified":"rail","gauge":"1620","operator":"Gruppo Torinese Trasporti","operator_short":"GTT","operator_wikidata":"Q3756307","railway":"subway","service":null,"tracks":"1","tunnel":"yes","frequency":"0","layer":"-2","maxspeed":"80","oneway":"yes","voltage":"750","Shape_Length":0.02101669097007974}},{"type":"Feature","id":54,"geometry":{"type":"LineString","coordinates":[[7.6677846000000613,45.073470800000052],[7.6679225000000315,45.073648400000081]]},"properties":{"OBJECTID":54,"F_id":"way/1479425448","electrified":"rail","gauge":"1620","operator":"Gruppo Torinese Trasporti","operator_short":"GTT","operator_wikidata":"Q3756307","railway":"subway","service":null,"tracks":"1","tunnel":"yes","frequency":"0","layer":"-2","maxspeed":"80","oneway":null,"voltage":"750","Shape_Length":0.00022485143984885193}},{"type":"Feature","id":55,"geometry":{"type":"LineString","coordinates":[[7.6677019000000541,45.073420700000042],[7.6675831000000585,45.073259000000064]]},"properties":{"OBJECTID":55,"F_id":"way/1479425449","electrified":"rail","gauge":"1620","operator":"Gruppo Torinese Trasporti","operator_short":"GTT","operator_wikidata":"Q3756307","railway":"subway","service":null,"tracks":"1","tunnel":"yes","frequency":"0","layer":"-2","maxspeed":"80","oneway":null,"voltage":"750","Shape_Length":0.00020064976947891457}},{"type":"Feature","id":56,"geometry":{"type":"LineString","coordinates":[[7.6552386000000752,45.075990300000058],[7.6552061000000435,45.075992600000063],[7.6551265000000512,45.076006600000028],[7.6550862000000279,45.07601070000004]]},"properties":{"OBJECTID":56,"F_id":"way/1479425450","electrified":"rail","gauge":"1620","operator":"Gruppo Torinese Trasporti","operator_short":"GTT","operator_wikidata":"Q3756307","railway":"subway","service":"crossover","tracks":"1","tunnel":"yes","frequency":"0","layer":"-2","maxspeed":"80","oneway":null,"voltage":"750","Shape_Length":0.00015391108615260118}},{"type":"Feature","id":57,"geometry":{"type":"LineString","coordinates":[[7.6673117000000275,45.075924800000053],[7.6667731000000572,45.076128200000028],[7.6663941000000477,45.076241400000072],[7.6659811000000673,45.076329200000032],[7.6656834000000345,45.07636610000003],[7.6653256000000738,45.076393600000074],[7.664645700000051,45.076400600000056],[7.6550862000000279,45.07601070000004]]},"properties":{"OBJECTID":57,"F_id":"way/1479425451","electrified":"rail","gauge":"1620","operator":"Gruppo Torinese Trasporti","operator_short":"GTT","operator_wikidata":"Q3756307","railway":"subway","service":null,"tracks":"1","tunnel":"yes","frequency":"0","layer":"-2","maxspeed":"80","oneway":"yes","voltage":"750","Shape_Length":0.012299718290309999}},{"type":"Feature","id":58,"geometry":{"type":"LineString","coordinates":[[7.6550862000000279,45.07601070000004],[7.6548685000000205,45.076001900000051]]},"properties":{"OBJECTID":58,"F_id":"way/1479425452","electrified":"rail","gauge":"1620","operator":"Gruppo Torinese Trasporti","operator_short":"GTT","operator_wikidata":"Q3756307","railway":"subway","service":null,"tracks":"1","tunnel":"yes","frequency":"0","layer":"-2","maxspeed":"80","oneway":null,"voltage":"750","Shape_Length":0.00021787778685089095}},{"type":"Feature","id":59,"geometry":{"type":"LineString","coordinates":[[7.6554852000000437,45.076000300000032],[7.6646412000000623,45.076373000000046],[7.6653228000000695,45.076364700000056],[7.6656796000000327,45.076337500000079],[7.6659625000000347,45.076301300000068],[7.6663778000000207,45.07621000000006],[7.666755500000022,45.076095100000032],[7.6672929000000636,45.075896200000045]]},"properties":{"OBJECTID":59,"F_id":"way/1479425453","electrified":"rail","gauge":"1620","operator":"Gruppo Torinese Trasporti","operator_short":"GTT","operator_wikidata":"Q3756307","railway":"subway","service":null,"tracks":"1","tunnel":"yes","frequency":"0","layer":"-2","maxspeed":"80","oneway":"yes","voltage":"750","Shape_Length":0.011881309375718426}},{"type":"Feature","id":60,"geometry":{"type":"LineString","coordinates":[[7.6552386000000752,45.075990300000058],[7.6554852000000437,45.076000300000032]]},"properties":{"OBJECTID":60,"F_id":"way/1479425454","electrified":"rail","gauge":"1620","operator":"Gruppo Torinese Trasporti","operator_short":"GTT","operator_wikidata":"Q3756307","railway":"subway","service":null,"tracks":"1","tunnel":"yes","frequency":"0","layer":"-2","maxspeed":"80","oneway":null,"voltage":"750","Shape_Length":0.00024680267418322678}},{"type":"Feature","id":61,"geometry":{"type":"LineString","coordinates":[[7.5906440000000543,45.076140100000032],[7.5905871000000502,45.076149900000075],[7.5905152000000271,45.076153000000033],[7.5904511000000525,45.076161900000045]]},"properties":{"OBJECTID":61,"F_id":"way/1479425455","electrified":"rail","gauge":"1620","operator":"Gruppo Torinese Trasporti","operator_short":"GTT","operator_wikidata":"Q3756307","railway":"subway","service":"crossover","tracks":"1","tunnel":"yes","frequency":"0","layer":"-1","maxspeed":"80","oneway":null,"voltage":"750","Shape_Length":0.00019441948045044075}},{"type":"Feature","id":62,"geometry":{"type":"LineString","coordinates":[[7.5906440000000543,45.076140100000032],[7.5899232000000438,45.076313200000072]]},"properties":{"OBJECTID":62,"F_id":"way/1479425456","electrified":"rail","gauge":"1620","operator":"Gruppo Torinese Trasporti","operator_short":"GTT","operator_wikidata":"Q3756307","railway":"subway","service":"siding","tracks":"1","tunnel":"yes","frequency":"0","layer":"-1","maxspeed":"80","oneway":"yes","voltage":"750","Shape_Length":0.00074129363279955339}},{"type":"Feature","id":63,"geometry":{"type":"LineString","coordinates":[[7.5904511000000525,45.076161900000045],[7.5911713000000418,45.075985800000069]]},"properties":{"OBJECTID":63,"F_id":"way/1479425457","electrified":"rail","gauge":"1620","operator":"Gruppo Torinese Trasporti","operator_short":"GTT","operator_wikidata":"Q3756307","railway":"subway","service":"siding","tracks":"1","tunnel":"yes","frequency":"0","layer":"-1","maxspeed":"80","oneway":"yes","voltage":"750","Shape_Length":0.00074141705535827294}},{"type":"Feature","id":64,"geometry":{"type":"LineString","coordinates":[[7.5899118000000385,45.07629380000003],[7.5904511000000525,45.076161900000045]]},"properties":{"OBJECTID":64,"F_id":"way/1479425458","electrified":"rail","gauge":"1620","operator":"Gruppo Torinese Trasporti","operator_short":"GTT","operator_wikidata":"Q3756307","railway":"subway","service":"siding","tracks":"1","tunnel":"yes","frequency":"0","layer":"-1","maxspeed":"80","oneway":null,"voltage":"750","Shape_Length":0.00055519555114503074}},{"type":"Feature","id":65,"geometry":{"type":"LineString","coordinates":[[7.5911813000000734,45.076011100000073],[7.5909472000000733,45.076067300000034]]},"properties":{"OBJECTID":65,"F_id":"way/1479425459","electrified":"rail","gauge":"1620","operator":"Gruppo Torinese Trasporti","operator_short":"GTT","operator_wikidata":"Q3756307","railway":"subway","service":"siding","tracks":"1","tunnel":"yes","frequency":"0","layer":"-1","maxspeed":"80","oneway":"yes","voltage":"750","Shape_Length":0.00024075142781634942}},{"type":"Feature","id":66,"geometry":{"type":"LineString","coordinates":[[7.5909472000000733,45.076067300000034],[7.5906440000000543,45.076140100000032]]},"properties":{"OBJECTID":66,"F_id":"way/1479425460","electrified":"rail","gauge":"1620","operator":"Gruppo Torinese Trasporti","operator_short":"GTT","operator_wikidata":"Q3756307","railway":"subway","service":"siding","tracks":"1","tunnel":"yes","frequency":"0","layer":"-1","maxspeed":"80","oneway":null,"voltage":"750","Shape_Length":0.00031181738247122097}},{"type":"Feature","id":67,"geometry":{"type":"LineString","coordinates":[[7.6611558000000741,45.016484600000069],[7.6611174000000233,45.016421200000025],[7.6610353000000373,45.016340100000036],[7.6609954000000471,45.016276000000062]]},"properties":{"OBJECTID":67,"F_id":"way/1479425461","electrified":"rail","gauge":"1620","operator":"Gruppo Torinese Trasporti","operator_short":"GTT","operator_wikidata":"Q3756307","railway":"subway","service":"crossover","tracks":"1","tunnel":"yes","frequency":"0","layer":"-1","maxspeed":"80","oneway":null,"voltage":"750","Shape_Length":0.00026502809912801824}},{"type":"Feature","id":68,"geometry":{"type":"LineString","coordinates":[[7.6612621000000445,45.016756500000042],[7.6613416000000711,45.016959900000074]]},"properties":{"OBJECTID":68,"F_id":"way/1479425462","electrified":"rail","gauge":"1620","operator":"Gruppo Torinese Trasporti","operator_short":"GTT","operator_wikidata":"Q3756307","railway":"subway","service":"siding","tracks":"1","tunnel":"yes","frequency":"0","layer":"-1","maxspeed":"80","oneway":"yes","voltage":"750","Shape_Length":0.0002183845461962027}},{"type":"Feature","id":69,"geometry":{"type":"LineString","coordinates":[[7.6612641000000394,45.016974300000072],[7.6609954000000471,45.016276000000062]]},"properties":{"OBJECTID":69,"F_id":"way/1479425463","electrified":"rail","gauge":"1620","operator":"Gruppo Torinese Trasporti","operator_short":"GTT","operator_wikidata":"Q3756307","railway":"subway","service":"siding","tracks":"1","tunnel":"yes","frequency":"0","layer":"-1","maxspeed":"80","oneway":"yes","voltage":"750","Shape_Length":0.00074821292424718285}},{"type":"Feature","id":70,"geometry":{"type":"LineString","coordinates":[[7.6681965000000218,45.074728900000025],[7.668138200000044,45.074932800000056],[7.6679715000000215,45.075289700000042],[7.6677192000000218,45.075653500000044],[7.6673117000000275,45.075924800000053]]},"properties":{"OBJECTID":70,"F_id":"way/1479425464","electrified":"rail","gauge":"1620","operator":"Gruppo Torinese Trasporti","operator_short":"GTT","operator_wikidata":"Q3756307","railway":"subway","service":null,"tracks":"1","tunnel":"yes","frequency":"0","layer":"-3","maxspeed":"80","oneway":"yes","voltage":"750","Shape_Length":0.0015382588678563335}},{"type":"Feature","id":71,"geometry":{"type":"LineString","coordinates":[[7.6681630000000496,45.074723000000063],[7.6682115000000408,45.074508900000069],[7.6681739000000562,45.074222600000041],[7.66809870000003,45.073999000000072],[7.6679615000000467,45.073774100000037],[7.6677019000000541,45.073420700000042]]},"properties":{"OBJECTID":71,"F_id":"way/1479425465","electrified":"rail","gauge":"1620","operator":"Gruppo Torinese Trasporti","operator_short":"GTT","operator_wikidata":"Q3756307","railway":"subway","service":null,"tracks":"1","tunnel":"yes","frequency":"0","layer":"-2","maxspeed":"80","oneway":"yes","voltage":"750","Shape_Length":0.0014461376278065976}},{"type":"Feature","id":72,"geometry":{"type":"LineString","coordinates":[[7.6672929000000636,45.075896200000045],[7.6677058000000216,45.075632100000064],[7.6679383000000598,45.075282700000059],[7.6681044000000611,45.074921800000027],[7.6681630000000496,45.074723000000063]]},"properties":{"OBJECTID":72,"F_id":"way/1479425466","electrified":"rail","gauge":"1620","operator":"Gruppo Torinese Trasporti","operator_short":"GTT","operator_wikidata":"Q3756307","railway":"subway","service":null,"tracks":"1","tunnel":"yes","frequency":"0","layer":"-3","maxspeed":"80","oneway":"yes","voltage":"750","Shape_Length":0.0015143694625495009}},{"type":"Feature","id":73,"geometry":{"type":"LineString","coordinates":[[7.6679225000000315,45.073648400000081],[7.6680078000000549,45.073758200000043],[7.6681420000000458,45.073989900000072],[7.6682127000000264,45.07421880000004],[7.6682413000000338,45.07450730000005],[7.6681965000000218,45.074728900000025]]},"properties":{"OBJECTID":73,"F_id":"way/1479425467","electrified":"rail","gauge":"1620","operator":"Gruppo Torinese Trasporti","operator_short":"GTT","operator_wikidata":"Q3756307","railway":"subway","service":null,"tracks":"1","tunnel":"yes","frequency":"0","layer":"-2","maxspeed":"80","oneway":"yes","voltage":"750","Shape_Length":0.0011623655085116684}}]}