{"type":"FeatureCollection","features":[{"type":"Feature","id":1,"geometry":{"type":"Point","coordinates":[7.6789575000000241,45.062753900000075]},"properties":{"OBJECTID":1,"F_id":"node/254594415","gtfs_id":"56664001","name":"Porta Nuova","operator":"Gruppo Torinese Trasporti","public_transport":"station","railway":"station","ref":"8224","station":"subway","subway":"yes","wheelchair":"yes","wikidata":"Q3398710","wikipedia":"it:Porta Nuova (metropolitana di Torino)","start_date":null,"emergency":null,"indoor":null,"addr_city":null,"addr_street":null,"GTT_Revised":null,"network":null,"defibrillator":null,"construction":null,"construction_railway":null}},{"type":"Feature","id":2,"geometry":{"type":"Point","coordinates":[7.6741445000000681,45.064486800000054]},"properties":{"OBJECTID":2,"F_id":"node/254594416","gtfs_id":"56663001","name":"Re Umberto","operator":"Gruppo Torinese Trasporti","public_transport":"station","railway":"station","ref":"8223","station":"subway","subway":"yes","wheelchair":"yes","wikidata":"Q3421524","wikipedia":"it:Re Umberto (metropolitana di Torino)","start_date":"2007","emergency":null,"indoor":null,"addr_city":null,"addr_street":null,"GTT_Revised":null,"network":null,"defibrillator":null,"construction":null,"construction_railway":null}},{"type":"Feature","id":3,"geometry":{"type":"Point","coordinates":[7.655792100000042,45.076026200000058]},"properties":{"OBJECTID":3,"F_id":"node/332648606","gtfs_id":"51616007","name":"Bernini","operator":"Gruppo Torinese Trasporti","public_transport":"station","railway":"station","ref":"8218","station":"subway","subway":"yes","wheelchair":"yes","wikidata":"Q2899076","wikipedia":"it:Bernini (metropolitana di Torino)","start_date":"2006","emergency":null,"indoor":null,"addr_city":null,"addr_street":null,"GTT_Revised":null,"network":null,"defibrillator":null,"construction":null,"construction_railway":null}},{"type":"Feature","id":4,"geometry":{"type":"Point","coordinates":[7.6442219000000478,45.075553900000045]},"properties":{"OBJECTID":4,"F_id":"node/332648726","gtfs_id":"51329010","name":"Rivoli","operator":"Gruppo Torinese Trasporti","public_transport":"station","railway":"station","ref":"8216","station":"subway","subway":"yes","wheelchair":"yes","wikidata":"Q3433966","wikipedia":"it:Rivoli (metropolitana di Torino)","start_date":"2006","emergency":null,"indoor":null,"addr_city":null,"addr_street":null,"GTT_Revised":null,"network":null,"defibrillator":null,"construction":null,"construction_railway":null}},{"type":"Feature","id":5,"geometry":{"type":"Point","coordinates":[7.602396800000065,45.073851300000058]},"properties":{"OBJECTID":5,"F_id":"node/332648897","gtfs_id":"50645012","name":"Paradiso","operator":"Gruppo Torinese Trasporti","public_transport":"station","railway":"station","ref":"8211","station":"subway","subway":"yes","wheelchair":"yes","wikidata":"Q3363302","wikipedia":"it:Paradiso (metropolitana di Torino)","start_date":"2006","emergency":null,"indoor":null,"addr_city":null,"addr_street":null,"GTT_Revised":null,"network":null,"defibrillator":null,"construction":null,"construction_railway":null}},{"type":"Feature","id":6,"geometry":{"type":"Point","coordinates":[7.6679848000000561,45.073767300000043]},"properties":{"OBJECTID":6,"F_id":"node/432803698","gtfs_id":"53573001","name":"XVIII Dicembre","operator":"Gruppo Torinese Trasporti","public_transport":"station","railway":"station","ref":"8220","station":"subway","subway":"yes","wheelchair":"yes","wikidata":"Q1150584","wikipedia":null,"start_date":null,"emergency":null,"indoor":null,"addr_city":null,"addr_street":null,"GTT_Revised":null,"network":null,"defibrillator":null,"construction":null,"construction_railway":null}},{"type":"Feature","id":7,"geometry":{"type":"Point","coordinates":[7.6652976000000308,45.070647600000029]},"properties":{"OBJECTID":7,"F_id":"node/432803701","gtfs_id":"57059001","name":"Porta Susa","operator":"Gruppo Torinese Trasporti","public_transport":"station","railway":"station","ref":"8221","station":"subway","subway":"yes","wheelchair":"yes","wikidata":"Q3398716","wikipedia":"it:Porta Susa (metropolitana di Torino)","start_date":null,"emergency":"defibrillator","indoor":"yes","addr_city":null,"addr_street":null,"GTT_Revised":null,"network":null,"defibrillator":null,"construction":null,"construction_railway":null}},{"type":"Feature","id":8,"geometry":{"type":"Point","coordinates":[7.6364023000000429,45.075239300000078]},"properties":{"OBJECTID":8,"F_id":"node/496268558","gtfs_id":"51150010","name":"Monte Grappa","operator":"Gruppo Torinese Trasporti","public_transport":"station","railway":"station","ref":"8215","station":"subway","subway":"yes","wheelchair":"yes","wikidata":"Q3322544","wikipedia":"it:Monte Grappa (metropolitana di Torino)","start_date":"2006","emergency":null,"indoor":null,"addr_city":null,"addr_street":null,"GTT_Revised":null,"network":null,"defibrillator":null,"construction":null,"construction_railway":null}},{"type":"Feature","id":9,"geometry":{"type":"Point","coordinates":[7.6291804000000525,45.074941800000033]},"properties":{"OBJECTID":9,"F_id":"node/496268559","gtfs_id":"50980013","name":"Pozzo Strada","operator":"Gruppo Torinese Trasporti","public_transport":"station","railway":"station","ref":"8214","station":"subway","subway":"yes","wheelchair":"yes","wikidata":"Q3401039","wikipedia":"it:Pozzo Strada (metropolitana di Torino)","start_date":"2006","emergency":null,"indoor":null,"addr_city":null,"addr_street":null,"GTT_Revised":null,"network":null,"defibrillator":null,"construction":null,"construction_railway":null}},{"type":"Feature","id":10,"geometry":{"type":"Point","coordinates":[7.620140000000049,45.074568800000065]},"properties":{"OBJECTID":10,"F_id":"node/496268560","gtfs_id":"50828020","name":"Massaua","operator":"Gruppo Torinese Trasporti","public_transport":"station","railway":"station","ref":"8213","station":"subway","subway":"yes","wheelchair":"yes","wikidata":"Q3297540","wikipedia":"it:Massaua (metropolitana di Torino)","start_date":"2006","emergency":null,"indoor":null,"addr_city":"Torino","addr_street":"Piazza Massaua","GTT_Revised":null,"network":null,"defibrillator":null,"construction":null,"construction_railway":null}},{"type":"Feature","id":11,"geometry":{"type":"Point","coordinates":[7.6147998000000712,45.074353500000029]},"properties":{"OBJECTID":11,"F_id":"node/496268561","gtfs_id":"50740021","name":"Marche","operator":"Gruppo Torinese Trasporti","public_transport":"station","railway":"station","ref":"8212","station":"subway","subway":"yes","wheelchair":"yes","wikidata":"Q3289709","wikipedia":"it:Marche (metropolitana di Torino)","start_date":"2006","emergency":null,"indoor":null,"addr_city":null,"addr_street":null,"GTT_Revised":null,"network":null,"defibrillator":null,"construction":null,"construction_railway":null}},{"type":"Feature","id":12,"geometry":{"type":"Point","coordinates":[7.6663568000000737,45.067290600000035]},"properties":{"OBJECTID":12,"F_id":"node/543360161","gtfs_id":"56662001","name":"Vinzaglio","operator":"Gruppo Torinese Trasporti","public_transport":"station","railway":"station","ref":"8222","station":"subway","subway":"yes","wheelchair":"yes","wikidata":"Q3560330","wikipedia":"it:Vinzaglio (metropolitana di Torino)","start_date":"2007","emergency":null,"indoor":null,"addr_city":null,"addr_street":null,"GTT_Revised":null,"network":null,"defibrillator":null,"construction":null,"construction_railway":null}},{"type":"Feature","id":13,"geometry":{"type":"Point","coordinates":[7.6728829000000474,45.04690370000003]},"properties":{"OBJECTID":13,"F_id":"node/893193542","gtfs_id":"52025005","name":"Dante","operator":"Gruppo Torinese Trasporti","public_transport":"station","railway":"station","ref":"8227","station":"subway","subway":"yes","wheelchair":"yes","wikidata":"Q3015708","wikipedia":"it:Dante (metropolitana di Torino)","start_date":"2011","emergency":null,"indoor":null,"addr_city":null,"addr_street":null,"GTT_Revised":null,"network":null,"defibrillator":null,"construction":null,"construction_railway":null}},{"type":"Feature","id":14,"geometry":{"type":"Point","coordinates":[7.6490993000000458,45.075751100000048]},"properties":{"OBJECTID":14,"F_id":"node/1095052533","gtfs_id":"51445008","name":"Racconigi","operator":"Gruppo Torinese Trasporti","public_transport":"station","railway":"station","ref":"8217","station":"subway","subway":"yes","wheelchair":"yes","wikidata":"Q3415986","wikipedia":"it:Racconigi (metropolitana di Torino)","start_date":"2006","emergency":null,"indoor":null,"addr_city":null,"addr_street":null,"GTT_Revised":null,"network":null,"defibrillator":null,"construction":null,"construction_railway":null}},{"type":"Feature","id":15,"geometry":{"type":"Point","coordinates":[7.5911760000000754,45.075995500000033]},"properties":{"OBJECTID":15,"F_id":"node/1481306407","gtfs_id":"53752005","name":"Fermi","operator":"Gruppo Torinese Trasporti","public_transport":"station","railway":"station","ref":"8210","station":"subway","subway":"yes","wheelchair":"yes","wikidata":"Q2279401","wikipedia":"it:Fermi (metropolitana di Torino)","start_date":"2006","emergency":"defibrillator","indoor":"yes","addr_city":null,"addr_street":null,"GTT_Revised":null,"network":null,"defibrillator":null,"construction":null,"construction_railway":null}},{"type":"Feature","id":16,"geometry":{"type":"Point","coordinates":[7.6694941000000654,45.038134200000059]},"properties":{"OBJECTID":16,"F_id":"node/1621378603","gtfs_id":"57866002","name":"Spezia","operator":"Gruppo Torinese Trasporti","public_transport":"station","railway":"station","ref":"8229","station":"subway","subway":"yes","wheelchair":"yes","wikidata":"Q3493081","wikipedia":"it:Spezia (metropolitana di Torino)","start_date":"2011","emergency":null,"indoor":null,"addr_city":null,"addr_street":null,"GTT_Revised":"no","network":null,"defibrillator":null,"construction":null,"construction_railway":null}},{"type":"Feature","id":17,"geometry":{"type":"Point","coordinates":[7.6746207000000481,45.051435900000058]},"properties":{"OBJECTID":17,"F_id":"node/1621697594","gtfs_id":"57871001","name":"Nizza","operator":"Gruppo Torinese Trasporti","public_transport":"station","railway":"station","ref":"8226","station":"subway","subway":"yes","wheelchair":"yes","wikidata":"Q3342318","wikipedia":"it:Nizza (metropolitana di Torino)","start_date":"2011","emergency":null,"indoor":null,"addr_city":null,"addr_street":null,"GTT_Revised":null,"network":"Formula","defibrillator":null,"construction":null,"construction_railway":null}},{"type":"Feature","id":18,"geometry":{"type":"Point","coordinates":[7.6768522000000416,45.057142200000044]},"properties":{"OBJECTID":18,"F_id":"node/1622042729","gtfs_id":"57872001","name":"Marconi","operator":"Gruppo Torinese Trasporti","public_transport":"station","railway":"station","ref":"8225","station":"subway","subway":"yes","wheelchair":"yes","wikidata":"Q1451469","wikipedia":"it:Marconi (metropolitana di Torino)","start_date":"2011","emergency":null,"indoor":null,"addr_city":null,"addr_street":null,"GTT_Revised":null,"network":null,"defibrillator":null,"construction":null,"construction_railway":null}},{"type":"Feature","id":19,"geometry":{"type":"Point","coordinates":[7.6646405000000755,45.076386100000036]},"properties":{"OBJECTID":19,"F_id":"node/2081499942","gtfs_id":"51856006","name":"Principi d'Acaja","operator":"Gruppo Torinese Trasporti","public_transport":"station","railway":"station","ref":"8219","station":"subway","subway":"yes","wheelchair":"yes","wikidata":"Q3403677","wikipedia":"it:Principi d'Acaja (metropolitana di Torino)","start_date":"2006","emergency":null,"indoor":null,"addr_city":null,"addr_street":null,"GTT_Revised":null,"network":null,"defibrillator":null,"construction":null,"construction_railway":null}},{"type":"Feature","id":20,"geometry":{"type":"Point","coordinates":[7.6711553000000663,45.042448400000069]},"properties":{"OBJECTID":20,"F_id":"node/3253332071","gtfs_id":"52025005","name":"Carducci-Molinette","operator":"Gruppo Torinese Trasporti","public_transport":"station","railway":"station","ref":"8228","station":"subway","subway":"yes","wheelchair":"yes","wikidata":"Q2938124","wikipedia":"it:Carducci-Molinette","start_date":"2011","emergency":null,"indoor":null,"addr_city":null,"addr_street":null,"GTT_Revised":null,"network":null,"defibrillator":null,"construction":null,"construction_railway":null}},{"type":"Feature","id":21,"geometry":{"type":"Point","coordinates":[7.6668834000000743,45.031403800000078]},"properties":{"OBJECTID":21,"F_id":"node/4076608590","gtfs_id":"57905001","name":"Lingotto","operator":"Gruppo Torinese Trasporti","public_transport":"station","railway":"station","ref":"8230","station":"subway","subway":"yes","wheelchair":"yes","wikidata":"Q514681","wikipedia":"it:Lingotto (metropolitana di Torino)","start_date":"2011","emergency":null,"indoor":null,"addr_city":null,"addr_street":null,"GTT_Revised":"no","network":null,"defibrillator":"yes","construction":null,"construction_railway":null}},{"type":"Feature","id":22,"geometry":{"type":"Point","coordinates":[7.6613021000000572,45.016967100000045]},"properties":{"OBJECTID":22,"F_id":"node/6257614746","gtfs_id":null,"name":"Bengasi","operator":"Gruppo Torinese Trasporti","public_transport":"station","railway":"station","ref":"8233","station":"subway","subway":"yes","wheelchair":"yes","wikidata":"Q104870723","wikipedia":"it:Bengasi (metropolitana di Torino)","start_date":null,"emergency":null,"indoor":null,"addr_city":null,"addr_street":null,"GTT_Revised":null,"network":null,"defibrillator":null,"construction":null,"construction_railway":null}},{"type":"Feature","id":23,"geometry":{"type":"Point","coordinates":[7.6642899000000284,45.024678300000062]},"properties":{"OBJECTID":23,"F_id":"node/6257614747","gtfs_id":null,"name":"Italia '61 - Regione Piemonte","operator":"Gruppo Torinese Trasporti","public_transport":"station","railway":"station","ref":"8232","station":"subway","subway":"yes","wheelchair":null,"wikidata":"Q104870720","wikipedia":"it:Italia '61 (metropolitana di Torino)","start_date":"2021-04-23","emergency":null,"indoor":null,"addr_city":null,"addr_street":null,"GTT_Revised":null,"network":"Formula","defibrillator":null,"construction":null,"construction_railway":null}}]}